[{"OBJECT_NAME":"STARLINK-11507 [DTC]","OBJECT_ID":"2025-004J","EPOCH":"2025-09-28T05:05:46.097376","MEAN_MOTION":15.71067757,"ECCENTRICITY":0.00021001,"INCLINATION":42.999,"RA_OF_ASC_NODE":330.2155,"ARG_OF_PERICENTER":263.1284,"MEAN_ANOMALY":96.9345,"EPHEMERIS_TYPE":0,"CLASSIFICATION_TYPE":"U","NORAD_CAT_ID":62519,"ELEMENT_SET_NO":999,"REV_AT_EPOCH":4165,"BSTAR":0.0030571697,"MEAN_MOTION_DOT":0.0041607,"MEAN_MOTION_DDOT":0},{"OBJECT_NAME":"STARLINK-11482 [DTC]","OBJECT_ID":"2025-004K","EPOCH":"2025-09-27T08:29:37.338432","MEAN_MOTION":15.70915028,"ECCENTRICITY":0.00016432,"INCLINATION":43,"RA_OF_ASC_NODE":334.9407,"ARG_OF_PERICENTER":265.6583,"MEAN_ANOMALY":94.4097,"EPHEMERIS_TYPE":0,"CLASSIFICATION_TYPE":"U","NORAD_CAT_ID":62520,"ELEMENT_SET_NO":999,"REV_AT_EPOCH":4152,"BSTAR":0.001849133,"MEAN_MOTION_DOT":0.00244708,"MEAN_MOTION_DDOT":0},{"OBJECT_NAME":"STARLINK-11528 [DTC]","OBJECT_ID":"2025-004L","EPOCH":"2025-09-27T14:13:06.927456","MEAN_MOTION":15.7090871,"ECCENTRICITY":0.00014697,"INCLINATION":42.9988,"RA_OF_ASC_NODE":334.1732,"ARG_OF_PERICENTER":303.5999,"MEAN_ANOMALY":56.4729,"EPHEMERIS_TYPE":0,"CLASSIFICATION_TYPE":"U","NORAD_CAT_ID":62521,"ELEMENT_SET_NO":999,"REV_AT_EPOCH":4155,"BSTAR":0.0018763412,"MEAN_MOTION_DOT":0.0024836,"MEAN_MOTION_DDOT":0},{"OBJECT_NAME":"STARLINK-11516 [DTC]","OBJECT_ID":"2025-004M","EPOCH":"2025-09-28T04:42:49.971744","MEAN_MOTION":15.70859069,"ECCENTRICITY":0.00014868,"INCLINATION":42.9991,"RA_OF_ASC_NODE":330.0851,"ARG_OF_PERICENTER":267.3302,"MEAN_ANOMALY":92.7395,"EPHEMERIS_TYPE":0,"CLASSIFICATION_TYPE":"U","NORAD_CAT_ID":62522,"ELEMENT_SET_NO":999,"REV_AT_EPOCH":4165,"BSTAR":0.0022049715,"MEAN_MOTION_DOT":0.00292915,"MEAN_MOTION_DDOT":0},{"OBJECT_NAME":"STARLINK-11527 [DTC]","OBJECT_ID":"2025-004N","EPOCH":"2025-09-28T04:27:32.521248","MEAN_MOTION":15.70881989,"ECCENTRICITY":9.631e-5,"INCLINATION":42.9984,"RA_OF_ASC_NODE":329.9975,"ARG_OF_PERICENTER":271.8417,"MEAN_ANOMALY":88.234,"EPHEMERIS_TYPE":0,"CLASSIFICATION_TYPE":"U","NORAD_CAT_ID":62523,"ELEMENT_SET_NO":999,"REV_AT_EPOCH":4165,"BSTAR":0.0022256525,"MEAN_MOTION_DOT":0.0029607,"MEAN_MOTION_DDOT":0},{"OBJECT_NAME":"STARLINK-32748","OBJECT_ID":"2025-004P","EPOCH":"2025-09-27T13:40:41.981376","MEAN_MOTION":15.27598371,"ECCENTRICITY":0.0002072,"INCLINATION":43.0004,"RA_OF_ASC_NODE":60.9083,"ARG_OF_PERICENTER":278.028,"MEAN_ANOMALY":82.0336,"EPHEMERIS_TYPE":0,"CLASSIFICATION_TYPE":"U","NORAD_CAT_ID":62524,"ELEMENT_SET_NO":999,"REV_AT_EPOCH":4151,"BSTAR":0.0019961909,"MEAN_MOTION_DOT":0.00055112,"MEAN_MOTION_DDOT":0},{"OBJECT_NAME":"STARLINK-32777","OBJECT_ID":"2025-004Q","EPOCH":"2025-09-27T14:38:03.276096","MEAN_MOTION":15.27609883,"ECCENTRICITY":0.00024265,"INCLINATION":43.0056,"RA_OF_ASC_NODE":61.2056,"ARG_OF_PERICENTER":264.8344,"MEAN_ANOMALY":95.2231,"EPHEMERIS_TYPE":0,"CLASSIFICATION_TYPE":"U","NORAD_CAT_ID":62525,"ELEMENT_SET_NO":999,"REV_AT_EPOCH":4151,"BSTAR":0.0015010552,"MEAN_MOTION_DOT":0.00041315,"MEAN_MOTION_DDOT":0},{"OBJECT_NAME":"STARLINK-32741","OBJECT_ID":"2025-004R","EPOCH":"2025-09-27T11:13:47.947584","MEAN_MOTION":15.2761325,"ECCENTRICITY":0.00016116,"INCLINATION":43.0043,"RA_OF_ASC_NODE":58.3962,"ARG_OF_PERICENTER":273.2021,"MEAN_ANOMALY":86.8647,"EPHEMERIS_TYPE":0,"CLASSIFICATION_TYPE":"U","NORAD_CAT_ID":62526,"ELEMENT_SET_NO":999,"REV_AT_EPOCH":4153,"BSTAR":0.0017481328,"MEAN_MOTION_DOT":0.00048207,"MEAN_MOTION_DDOT":0},{"OBJECT_NAME":"STARLINK-32754","OBJECT_ID":"2025-004S","EPOCH":"2025-09-27T18:45:21.952512","MEAN_MOTION":15.27593525,"ECCENTRICITY":0.00020606,"INCLINATION":43.0041,"RA_OF_ASC_NODE":59.9197,"ARG_OF_PERICENTER":270.5363,"MEAN_ANOMALY":89.5253,"EPHEMERIS_TYPE":0,"CLASSIFICATION_TYPE":"U","NORAD_CAT_ID":62527,"ELEMENT_SET_NO":999,"REV_AT_EPOCH":4059,"BSTAR":0.0014621241,"MEAN_MOTION_DOT":0.00040209,"MEAN_MOTION_DDOT":0},{"OBJECT_NAME":"STARLINK-32786","OBJECT_ID":"2025-004T","EPOCH":"2025-09-27T19:31:25.262112","MEAN_MOTION":15.27582831,"ECCENTRICITY":0.00011397,"INCLINATION":43.0006,"RA_OF_ASC_NODE":59.2949,"ARG_OF_PERICENTER":334.9066,"MEAN_ANOMALY":25.173,"EPHEMERIS_TYPE":0,"CLASSIFICATION_TYPE":"U","NORAD_CAT_ID":62528,"ELEMENT_SET_NO":999,"REV_AT_EPOCH":4060,"BSTAR":0.0013384626,"MEAN_MOTION_DOT":0.00036756,"MEAN_MOTION_DDOT":0},{"OBJECT_NAME":"STARLINK-32789","OBJECT_ID":"2025-004U","EPOCH":"2025-09-27T11:03:50.559840","MEAN_MOTION":15.27599315,"ECCENTRICITY":0.00011305,"INCLINATION":43.0008,"RA_OF_ASC_NODE":61.8026,"ARG_OF_PERICENTER":281.1325,"MEAN_ANOMALY":78.94,"EPHEMERIS_TYPE":0,"CLASSIFICATION_TYPE":"U","NORAD_CAT_ID":62529,"ELEMENT_SET_NO":999,"REV_AT_EPOCH":4149,"BSTAR":0.0012651429,"MEAN_MOTION_DOT":0.00034736,"MEAN_MOTION_DDOT":0},{"OBJECT_NAME":"STARLINK-32791","OBJECT_ID":"2025-004V","EPOCH":"2025-09-27T10:43:30.521856","MEAN_MOTION":15.27547432,"ECCENTRICITY":0.00013685,"INCLINATION":42.9983,"RA_OF_ASC_NODE":61.695,"ARG_OF_PERICENTER":251.0692,"MEAN_ANOMALY":109.0011,"EPHEMERIS_TYPE":0,"CLASSIFICATION_TYPE":"U","NORAD_CAT_ID":62530,"ELEMENT_SET_NO":999,"REV_AT_EPOCH":4149,"BSTAR":0.00027507444,"MEAN_MOTION_DOT":7.308e-5,"MEAN_MOTION_DDOT":0},{"OBJECT_NAME":"STARLINK-32785","OBJECT_ID":"2025-004W","EPOCH":"2025-09-27T11:14:57.332832","MEAN_MOTION":15.27609872,"ECCENTRICITY":0.00063838,"INCLINATION":43.0056,"RA_OF_ASC_NODE":61.8717,"ARG_OF_PERICENTER":295.6459,"MEAN_ANOMALY":64.3733,"EPHEMERIS_TYPE":0,"CLASSIFICATION_TYPE":"U","NORAD_CAT_ID":62531,"ELEMENT_SET_NO":999,"REV_AT_EPOCH":4149,"BSTAR":0.0015175589,"MEAN_MOTION_DOT":0.00041793,"MEAN_MOTION_DDOT":0},{"OBJECT_NAME":"STARLINK-11538 [DTC]","OBJECT_ID":"2025-006A","EPOCH":"2025-09-27T09:22:08.232384","MEAN_MOTION":15.71077607,"ECCENTRICITY":0.000236,"INCLINATION":42.9993,"RA_OF_ASC_NODE":43.8544,"ARG_OF_PERICENTER":269.0428,"MEAN_ANOMALY":91.0169,"EPHEMERIS_TYPE":0,"CLASSIFICATION_TYPE":"U","NORAD_CAT_ID":62554,"ELEMENT_SET_NO":999,"REV_AT_EPOCH":4092,"BSTAR":0.0030341664,"MEAN_MOTION_DOT":0.00412948,"MEAN_MOTION_DDOT":0},{"OBJECT_NAME":"STARLINK-11534 [DTC]","OBJECT_ID":"2025-006B","EPOCH":"2025-09-28T06:51:36.787680","MEAN_MOTION":15.70896986,"ECCENTRICITY":0.00019814,"INCLINATION":42.9993,"RA_OF_ASC_NODE":38.5333,"ARG_OF_PERICENTER":287.6654,"MEAN_ANOMALY":72.3998,"EPHEMERIS_TYPE":0,"CLASSIFICATION_TYPE":"U","NORAD_CAT_ID":62555,"ELEMENT_SET_NO":999,"REV_AT_EPOCH":4106,"BSTAR":0.0021972459,"MEAN_MOTION_DOT":0.00292331,"MEAN_MOTION_DDOT":0},{"OBJECT_NAME":"STARLINK-11515 [DTC]","OBJECT_ID":"2025-006C","EPOCH":"2025-09-28T06:21:12.866400","MEAN_MOTION":15.71007925,"ECCENTRICITY":0.0002742,"INCLINATION":43.0001,"RA_OF_ASC_NODE":39.257,"ARG_OF_PERICENTER":239.8434,"MEAN_ANOMALY":120.2163,"EPHEMERIS_TYPE":0,"CLASSIFICATION_TYPE":"U","NORAD_CAT_ID":62556,"ELEMENT_SET_NO":999,"REV_AT_EPOCH":4105,"BSTAR":0.0029284291,"MEAN_MOTION_DOT":0.00396588,"MEAN_MOTION_DDOT":0}]
