STARLINK-11507 [DTC]    
1 62519U 25004J   25271.21233909  .00416070  00000+0  30572-2 0  9996
2 62519  42.9990 330.2155 0002100 263.1284  96.9345 15.71067757 41654
STARLINK-11482 [DTC]    
1 62520U 25004K   25270.35390438  .00244708  00000+0  18491-2 0  9996
2 62520  43.0000 334.9407 0001643 265.6583  94.4097 15.70915028 41526
STARLINK-11528 [DTC]    
1 62521U 25004L   25270.59244129  .00248360  00000+0  18763-2 0  9998
2 62521  42.9988 334.1732 0001469 303.5999  56.4729 15.70908710 41555
STARLINK-11516 [DTC]    
1 62522U 25004M   25271.19641171  .00292915  00000+0  22050-2 0  9993
2 62522  42.9991 330.0851 0001486 267.3302  92.7395 15.70859069 41656
STARLINK-11527 [DTC]    
1 62523U 25004N   25271.18579307  .00296070  00000+0  22257-2 0  9999
2 62523  42.9984 329.9975 0000963 271.8417  88.2340 15.70881989 41655
STARLINK-32748          
1 62524U 25004P   25270.56993034  .00055112  00000+0  19962-2 0  9997
2 62524  43.0004  60.9083 0002072 278.0280  82.0336 15.27598371 41517
STARLINK-32777          
1 62525U 25004Q   25270.60976014  .00041315  00000+0  15011-2 0  9993
2 62525  43.0056  61.2056 0002426 264.8344  95.2231 15.27609883 41517
STARLINK-32741          
1 62526U 25004R   25270.46791606  .00048207  00000+0  17481-2 0  9990
2 62526  43.0043  58.3962 0001611 273.2021  86.8647 15.27613250 41530
STARLINK-32754          
1 62527U 25004S   25270.78150408  .00040209  00000+0  14621-2 0  9992
2 62527  43.0041  59.9197 0002060 270.5363  89.5253 15.27593525 40594
STARLINK-32786          
1 62528U 25004T   25270.81348683  .00036756  00000+0  13385-2 0  9999
2 62528  43.0006  59.2949 0001139 334.9066  25.1730 15.27582831 40601
STARLINK-32789          
1 62529U 25004U   25270.46100185  .00034736  00000+0  12651-2 0  9995
2 62529  43.0008  61.8026 0001130 281.1325  78.9400 15.27599315 41494
STARLINK-32791          
1 62530U 25004V   25270.44688104  .00007308  00000+0  27507-3 0  9999
2 62530  42.9983  61.6950 0001368 251.0692 109.0011 15.27547432 41493
STARLINK-32785          
1 62531U 25004W   25270.46871913  .00041793  00000+0  15176-2 0  9998
2 62531  43.0056  61.8717 0006383 295.6459  64.3733 15.27609872 41498
STARLINK-11538 [DTC]    
1 62554U 25006A   25270.39037306  .00412948  00000+0  30342-2 0  9993
2 62554  42.9993  43.8544 0002360 269.0428  91.0169 15.71077607 40922
STARLINK-11534 [DTC]    
1 62555U 25006B   25271.28584245  .00292331  00000+0  21972-2 0  9993
2 62555  42.9993  38.5333 0001981 287.6654  72.3998 15.70896986 41061
STARLINK-11515 [DTC]    
1 62556U 25006C   25271.26473225  .00396588  00000+0  29284-2 0  9990
2 62556  43.0001  39.2570 0002742 239.8434 120.2163 15.71007925 41050
